{
  "norad_id": 44542,
  "name": "BEIDOU-3 M24",
  "history": [
    {
      "epoch": "2026-03-26T13:13:55.330176Z",
      "apogee_km": 21551.138652750506,
      "perigee_km": 21505.40562945007,
      "latitude_deg": -9.651937984119315e-06,
      "longitude_deg": 163.03391379714728,
      "height_km": 21506.43948665021,
      "semi_major_axis_km": 27906.40914110029,
      "eccentricity": 0.0008194,
      "inclination_deg": 54.397,
      "raan_deg": 185.5149,
      "arg_perigee_deg": 15.0686,
      "mean_anomaly_deg": 344.9633,
      "mean_motion_rev_day": 1.86228792
    }
  ]
}